CZ-2C R/B               
1 28222U 04012C   24338.78498865  .00025985  00000+0  77527-3 0  9997
2 28222  97.7916   0.0889 0029341 170.6247 189.5548 15.34191192133023
SL-16 R/B               
1 28353U 04021B   24338.82066313 -.00000133  00000+0 -44284-4 0  9991
2 28353  70.9992 119.5901 0004926 350.8650   9.2382 14.14490244 57664
CZ-4B R/B               
1 28415U 04035C   24338.65486728  .00012022  00000+0  55036-3 0  9996
2 28415  97.4041   8.8434 0039988 151.1447 209.2012 15.19921936109668
CZ-2C R/B               
1 28480U 04046B   24339.11352110  .00000604  00000+0  23975-3 0  9999
2 28480  98.1814 272.1010 0141359  76.9130 284.7786 14.26630583 42823
ARIANE 5 R/B            
1 28499U 04049H   24338.81278590  .00002363  00000+0  27458-3 0  9991
2 28499  98.2069 121.0891 0087458  44.7690 316.0538 14.83658803 77413
CZ-2D R/B               
1 28738U 05024B   24338.57703929  .00024313  00000+0  74194-3 0  9991
2 28738  97.3678 335.5926 0005001 258.3588 101.7094 15.33906893 68562
SUZAKU (ASTRO-EII)      
1 28773U 05025A   24339.43426060  .00293494  00000+0  12957-2 0  9991
2 28773  31.3802  41.5428 0004733 119.2210 240.8929 15.82593374 73598
ALOS (DAICHI)           
1 28931U 06002A   24339.45642154  .00004309  00000+0  77073-3 0  9995
2 28931  98.0608 289.2421 0001380  46.9203 313.2117 14.67370869  6308
H-2A R/B                
1 28932U 06002B   24339.16940725  .00013817  00000+0  90741-3 0  9990
2 28932  98.2033  80.9024 0064141 358.4317   1.6697 15.06049126 24976
RESURS-DK 1             
1 29228U 06021A   24339.47767601  .00005279  00000+0  33790-3 0  9998
2 29228  69.9350 344.4202 0001570 133.2103 226.9192 15.09173170 18028
GENESIS 1               
1 29252U 06029A   24339.19177033  .00064593  00000+0  98945-3 0  9993
2 29252  64.5103 306.8957 0034240 304.9749  54.8177 15.53275454 16918
CZ-4B R/B               
1 29507U 06046C   24338.83667423  .00009788  00000+0  58177-3 0  9990
2 29507  97.6228  14.0580 0039272  58.4910 302.0147 15.10828161990308
CZ-2C R/B               
1 31114U 07010B   24338.80346444  .00000560  00000+0  27776-3 0  9993
2 31114  98.3563 105.2215 0059007 193.7460 166.2114 14.19987802914300
COSMO-SKYMED 1          
1 31598U 07023A   24339.39748093  .00001673  00000+0  21661-3 0  9997
2 31598  97.8862 160.0941 0001494  88.7474 271.3910 14.82177564946417
GENESIS 2               
1 31789U 07028A   24339.47737930  .00046706  00000+0  82370-3 0  9991
2 31789  64.4853 352.9923 0009988 291.5902  68.4172 15.50077977963740
COSMOS 2428             
1 31792U 07029A   24338.70748929  .00000519  00000+0  30468-3 0  9994
2 31792  70.9421  90.9715 0007256 190.0869 170.0107 14.12818007898981
SL-16 R/B               
1 31793U 07029B   24339.50391076  .00000441  00000+0  25394-3 0  9997
2 31793  70.9762  59.6531 0002423 276.9182 171.8799 14.14716621900375
KORONAS-FOTON           
1 33504U 09003A   24339.15028846  .00016740  00000+0  54869-3 0  9994
2 33504  82.4357  30.2073 0013050   7.2618 352.8809 15.31431539875116
CZ-2C R/B               
1 37731U 11030B   24338.87406855  .00004095  00000+0  54579-3 0  9999
2 37731  97.7895 296.9494 0056145  50.3783   3.3274 14.79059133721920
H-2A R/B                
1 38341U 12025E   24339.35689310  .00007219  00000+0  72233-3 0  9993
2 38341  98.4250 261.8156 0049286  17.2464 343.0412 14.90851336679606
CUSAT 2 & FALCON 9 R/B  
1 39271U 13055G   24339.41025993  .00218121  12305-4  99234-3 0  9990
2 39271  80.9121 228.3132 0167886  79.0792 282.9301 15.65698360591588
SHIJIAN-16 (SJ-16)      
1 39358U 13057A   24339.45343746  .00002689  00000+0  27954-3 0  9995
2 39358  74.9731 335.0955 0015890 152.3814 207.8221 14.90223566602961
SL-4 R/B                
1 39679U 14021B   24339.13548155  .00020197  00000+0  63756-3 0  9993
2 39679  51.6094  40.9321 0125760 240.9925 117.8403 15.25406391585976
ALOS-2                  
1 39766U 14029A   24339.47735470  .00003868  00000+0  52461-3 0  9990
2 39766  97.9233  73.6818 0001456  99.4158 260.7218 14.79466018568855
YAOGAN-29               
1 41038U 15069A   24339.46316868  .00001383  00000+0  18020-3 0  9998
2 41038  98.0479 354.8668 0002699  65.4051 294.7443 14.82217730487683
ASTRO-H (HITOMI)        
1 41337U 16012A   24338.60910414  .00006630  00000+0  43704-3 0  9998
2 41337  31.0014  83.6680 0010410  28.4016 331.7187 15.06041748482568
HXMT (HUIYAN)           
1 42758U 17034A   24339.46931076  .00015489  00000+0  72213-3 0  9992
2 42758  43.0146  49.2435 0010196 137.1382 223.0264 15.19626859412711
CZ-2C R/B               
1 43521U 18054D   24338.71969611  .00037358  00000+0  92887-3 0  9995
2 43521  35.1409 116.4807 0044445 236.3447 123.3031 15.38243433356896
SAOCOM 1A               
1 43641U 18076A   24339.47360113  .00001446  00000+0  18812-3 0  9993
2 43641  97.8849 163.2551 0001463  88.3431 271.7950 14.82154918333192
H-2A R/B                
1 43682U 18084L   24338.83595498  .00025471  00000+0  10915-2 0  9991
2 43682  98.8564  94.8809 0038690 161.1422 199.1253 15.22074958335235
SAOCOM 1B               
1 46265U 20059A   24339.50490025  .00001250  00000+0  16359-3 0  9999
2 46265  97.8852 162.3851 0001498  92.4333 267.7052 14.82129218230592
CSS (TIANHE)            
1 48274U 21035A   24339.44181364  .00021754  00000+0  26903-3 0  9999
2 48274  41.4659 125.2960 0000738 125.7415 234.3492 15.59590273205723
COSMOS 2550             
1 48865U 21056A   24339.47791914  .00000019  00000+0  64158-5 0  9996
2 48865  67.1408 353.1673 0008331 270.2168  89.8031 15.33829749192897
CZ-2C R/B               
1 52794U 22058K   24338.68975856  .00028141  00000+0  87374-3 0  9995
2 52794  50.1956 124.7275 0067874  95.5744 265.2963 15.30859465139012
XRISM                   
1 57800U 23137A   24338.80438630  .00010348  00000+0  70975-3 0  9994
2 57800  31.0040  10.3107 0008688  98.6015 261.5607 15.04758661 68140
2023-193D               
1 58556U 23193D   24339.48415029  .00165555  00000+0  90891-3 0  9997
2 58556  97.2525 354.0292 0011372  47.6383 312.5845 15.79217255 56138
ACS3                    
1 59588U 24077B   24339.33205902  .00005401  00000+0  57831-2 0  9995
2 59588  97.5229   8.9406 0034687 221.1618 138.6919 13.73742740 30690
SZ-17 MODULE            
1 59624U 23164C   24339.46920657  .00488651  12324-3  54687-3 0  9992
2 59624  41.4656  99.0389 0012176  14.4351 345.6850 16.08350936 34455
